{"fetched_at":"2026-07-13T18:17:15.790Z","source":"https://celestrak.org/NORAD/elements/gp.php?NAME=SENTINEL&FORMAT=JSON","constellation":"sentinel-6","records":[{"OBJECT_NAME":"SENTINEL-6A","OBJECT_ID":"2020-086A","EPOCH":"2026-07-12T22:17:12.577920","CLASSIFICATION_TYPE":"U","MEAN_MOTION":12.80930069,"ECCENTRICITY":0.0007812,"INCLINATION":66.0413,"RA_OF_ASC_NODE":81.5884,"ARG_OF_PERICENTER":269.9474,"MEAN_ANOMALY":90.0646,"EPHEMERIS_TYPE":0,"NORAD_CAT_ID":46984,"ELEMENT_SET_NO":999,"REV_AT_EPOCH":26362,"BSTAR":0.000008170496,"MEAN_MOTION_DOT":-5.9e-7,"MEAN_MOTION_DDOT":0},{"OBJECT_NAME":"SENTINEL-6B","OBJECT_ID":"2025-264A","EPOCH":"2026-07-12T22:17:42.638208","CLASSIFICATION_TYPE":"U","MEAN_MOTION":12.80930082,"ECCENTRICITY":0.00078718,"INCLINATION":66.0413,"RA_OF_ASC_NODE":81.7138,"ARG_OF_PERICENTER":268.7841,"MEAN_ANOMALY":91.2272,"EPHEMERIS_TYPE":0,"NORAD_CAT_ID":66514,"ELEMENT_SET_NO":999,"REV_AT_EPOCH":3046,"BSTAR":0.000010664884,"MEAN_MOTION_DOT":-5.9e-7,"MEAN_MOTION_DDOT":0}]}
